UNISAT-6                
1 40012U 14033C   26048.42638403  .00004264  00000+0  46725-3 0  9990
2 40012  97.7684 203.4223 0046789 103.0847 257.5598 14.87470579628350
DEIMOS-2                
1 40013U 14033D   26048.52734551  .00002027  00000+0  19869-3 0  9997
2 40013  97.6011 287.1210 0001722  60.1163 300.0227 14.93316916619861
BUGSAT-1 (TITA)         
1 40014U 14033E   26048.55110661  .00005864  00000+0  32202-3 0  9999
2 40014  98.0469 134.2318 0027971 227.4158 132.4712 15.14221679637727
SAUDISAT 4              
1 40016U 14033G   26048.40681685  .00000982  00000+0  13628-3 0  9991
2 40016  97.7371 198.8254 0046346 102.9516 257.6877 14.79347035628361
APRIZESAT 9             
1 40018U 14033J   26048.33585054  .00000999  00000+0  15457-3 0  9998
2 40018  97.8846 184.6145 0065430 224.8491 134.7420 14.74023503625906
BRITE-CA1 (TORONTO)     
1 40020U 14033L   26048.31019322  .00001094  00000+0  17289-3 0  9991
2 40020  97.9537 179.6036 0077819 301.1774  58.1820 14.72403850624577
DUCHIFAT-1              
1 40021U 14033M   26048.08547607  .00058123  00000+0  11331-2 0  9994
2 40021  98.0675  92.1251 0006683 142.1266 218.0454 15.47312522637089
NANOSATC-BR1            
1 40024U 14033Q   26048.02267113  .00019540  00000+0  73272-3 0  9995
2 40024  98.0860  70.0612 0002317 220.3330 139.7736 15.27293150635617
QB50P1                  
1 40025U 14033R   26048.45027964  .00010563  00000+0  55230-3 0  9991
2 40025  98.0991  51.3753 0006984 278.6272  81.4168 15.16055650634874
DTUSAT-2                
1 40030U 14033W   26048.49236864  .00009582  00000+0  54436-3 0  9998
2 40030  98.0827  38.8146 0006127 289.0280  71.0286 15.13130539634578
QB50P2                  
1 40032U 14033Y   26048.49809850  .00009792  00000+0  55417-3 0  9994
2 40032  98.0708  38.1244 0006311 209.7596 150.3275 15.13261014634554
PERSEUS-M1              
1 40039U 14033AF  26048.39661027  .00002694  00000+0  25072-3 0  9990
2 40039  97.9539 350.6903 0011184 344.1806  15.9063 14.95143777632730
POLYITAN-1              
1 40042U 14033AJ  26048.45300072  .00021340  00000+0  76718-3 0  9993
2 40042  98.1053  63.7392 0007200 190.7288 169.3797 15.28641824635278
TIGRISAT                
1 40043U 14033AK  26048.37100780  .00003112  00000+0  36624-3 0  9998
2 40043  97.7633 201.2918 0050984 107.4952 253.1844 14.84608318627842
AISAT                   
1 40054U 14034B   26048.29465015  .00012832  00000+0  87995-3 0  9993
2 40054  98.2472 312.1677 0008038 267.5538  92.4766 15.06151005629149
CANX-4                  
1 40055U 14034C   26048.17241566  .00001320  00000+0  17752-3 0  9998
2 40055  98.3308 278.9688 0013732  41.2085 319.0161 14.81006075626761
CANX-5                  
1 40056U 14034D   26048.17221945  .00001341  00000+0  18013-3 0  9992
2 40056  98.3311 279.0050 0013720  41.4009 318.8240 14.81022871617572
VELOX-I                 
1 40057U 14034E   26048.50225794  .00005737  00000+0  50922-3 0  9994
2 40057  98.2651 306.7673 0006983 314.6633  45.4017 14.96583934628697
GONETS-M 10             
1 40063U 14036C   26048.53774458 -.00000064  00000+0 -53221-3 0  9997
2 40063  82.5117  21.9815 0022878  44.8707 315.4217 12.42941573527388
METEOR-M 2              
1 40069U 14037A   26048.48089829  .00000395  00000+0  20010-3 0  9994
2 40069  98.4985  28.5395 0006496  33.3907 326.7680 14.21420998602310
DX1                     
1 40071U 14037C   26048.47214865  .00001222  00000+0  13475-3 0  9993
2 40071  98.3723   3.0535 0006161 310.1886  49.8790 14.89516025628287
UKUBE-1                 
1 40074U 14037F   26048.49296923  .00010667  00000+0  63698-3 0  9998
2 40074  98.4209  39.4120 0001847 128.8239 231.3154 15.11325869630460
GAOFEN-2                
1 40118U 14049A   26048.50818968  .00000442  00000+0  64426-4 0  9992
2 40118  98.0274 112.7611 0006017 260.5441  99.5091 14.80737691621526
BRITE-PL2 (HEWELIUSZ)   
1 40119U 14049B   26048.31412587  .00003141  00000+0  29906-3 0  9991
2 40119  97.8978 159.5297 0015089 143.4993 216.7258 14.94067179623548
CBERS 4                 
1 40336U 14079A   26048.49878150  .00000383  00000+0  14765-3 0  9998
2 40336  98.3192 109.1851 0000765  47.2783 312.8467 14.35505286586788
SMAP                    
1 40376U 15003A   26048.48954618  .00000554  00000+0  11654-3 0  9997
2 40376  98.1307  57.2622 0000883 102.3900 257.7401 14.63311374590113
GONETS-M 11             
1 40552U 15020A   26048.54949595  .00000111  00000+0  72937-3 0  9997
2 40552  82.4844 105.5510 0014909 261.5480  98.3910 12.42871875493870
GONETS-M 12             
1 40553U 15020B   26048.52443087  .00000008  00000+0 -11037-4 0  9992
2 40553  82.4881 106.6594 0014066 244.8487 115.1134 12.42887396493861
GONETS-M 13             
1 40554U 15020C   26048.49588986  .00000072  00000+0  44835-3 0  9998
2 40554  82.4840 105.3269 0012943 228.2945 131.7028 12.42866190493831
DMC3-FM1                
1 40715U 15032A   26048.52199235  .00000944  00000+0  11502-3 0  9992
2 40715  97.6644 278.2678 0007058  87.0022 273.2001 14.85578590572140
DMC3-FM2                
1 40716U 15032B   26048.54437409  .00001239  00000+0  14909-3 0  9995
2 40716  97.6703 279.7808 0007633  90.8725 269.3366 14.85584411572148
DMC3-FM3                
1 40717U 15032C   26048.56708321  .00000255  00000+0  35523-4 0  9995
2 40717  97.6757 281.4787 0006915  90.9755 269.2252 14.85544824572158
CARBONITE 1 (CBNT-1)    
1 40718U 15032D   26048.51699875  .00003016  00000+0  37566-3 0  9990
2 40718  97.6431 231.6498 0013952 332.0009  28.0453 14.83118497571609
DEORBITSAIL             
1 40719U 15032E   26048.05139175  .00010321  00000+0  79295-3 0  9994
2 40719  97.6056 267.2125 0010312 284.8525  75.1557 15.01886523573208
2015-049G               
1 40905U 15049G   26048.50812317  .00034447  00000+0  46507-3 0  9990
2 40905  97.4753  86.0775 0004276 306.4466  53.6394 15.57700928577762
LILACSAT-2              
1 40908U 15049K   26048.53545936  .00018456  00000+0  36374-3 0  9999
2 40908  97.4837  81.0693 0006593 340.3976  19.7019 15.47243395577226
COSMOS 2507 (RODNIK-S *)
1 40920U 15050A   26048.45622000 -.00000040  00000+0 -36091-3 0  9992
2 40920  82.4964 154.2112 0009011 245.0772 114.9371 12.42922128471982
COSMOS 2508 (RODNIK-S *)
1 40921U 15050B   26048.57097663 -.00000038  00000+0 -34250-3 0  9999
2 40921  82.4917 152.6914 0012951 283.2704  76.6931 12.42909040471983
COSMOS 2509 (RODNIK-S *)
1 40922U 15050C   26048.50878603 -.00000055  00000+0 -47087-3 0  9995
2 40922  82.4923 152.8217 0013317 303.6626  56.3183 12.42929186472018
LQSAT                   
1 40958U 15057A   26048.54120882  .00000497  00000+0  78002-4 0  9994
2 40958  97.6639  47.8839 0015901 304.6511  55.3200 14.76596924557659
LINGQIAO VIDEO A        
1 40959U 15057B   26048.54313846  .00000751  00000+0  11267-3 0  9991
2 40959  97.6588  49.2866 0015587 302.0729  57.8968 14.77197134557741
LINGQIAO VIDEO B        
1 40960U 15057C   26048.52787573  .00000982  00000+0  14500-3 0  9992
2 40960  97.6560  50.4642 0015742 302.2900  57.6786 14.77287882557785
JILIN-1                 
1 40961U 15057D   26048.45908847  .00000807  00000+0  11857-3 0  9992
2 40961  97.6507  53.7927 0015633 295.6481  64.3115 14.77954210557920
FOX-1A (AO-85)          
1 40967U 15058D   26048.12484620  .00003889  00000+0  35634-3 0  9993
2 40967  64.7756 291.8823 0129886 104.1224 257.4362 14.90181173 95675
SINOD-D 1               
1 40968U 15058E   26048.23601109  .00004958  00000+0  40924-3 0  9995
2 40968  64.7741 274.2499 0118317 101.6069 259.8353 14.94802522 98727
ELEKTRO-L 2             
1 41105U 15074A   26048.39184432 -.00000111  00000+0  00000+0 0  9994
2 41105   6.3910  72.0078 0003240 236.3290 325.6162  1.00272101 37302
DAMPE                   
1 41173U 15078A   26048.53196571  .00002019  00000+0  71109-4 0  9997
2 41173  97.4567  53.4316 0013141 134.2501 225.9821 15.30423307566244
ORBCOMM FM114           
1 41179U 15081A   26048.39427579  .00000653  00000+0  17487-3 0  9996
2 41179  47.0033 208.3049 0001947 356.6151   3.4722 14.58693677540266
ORBCOMM FM110           
1 41182U 15081D   26048.45197066  .00000855  00000+0  21795-3 0  9993
2 41182  47.0005 207.5090 0003399 242.3264 117.7277 14.58688388540149
ORBCOMM FM112           
1 41184U 15081F   26048.21554382  .00000913  00000+0  23022-3 0  9997
2 41184  46.9984 117.4473 0001736 337.8976  22.1835 14.58690772541434
ORBCOMM FM113           
1 41185U 15081G   26048.26126895  .00000848  00000+0  21633-3 0  9990
2 41185  47.0002 117.5964 0001229 339.5958  20.4878 14.58693470541425
ORBCOMM FM108           
1 41187U 15081J   26048.01849255  .00000971  00000+0  24256-3 0  9998
2 41187  47.0059  30.2759 0002938 343.0439  17.0348 14.58695384542537
ORBCOMM FM117           
1 41188U 15081K   26048.32641663  .00000869  00000+0  22085-3 0  9990
2 41188  47.0020  27.4932 0003129 353.6422   6.4423 14.58688668542622
ORBCOMM FM116           
1 41189U 15081L   26048.51261688  .00000940  00000+0  23600-3 0  9991
2 41189  47.0017 116.3952 0002641 240.9573 119.1048 14.58684651541466
CHUBUSAT-2              
1 41338U 16012B   26048.25446179  .00007951  00000+0  36021-3 0  9993
2 41338  30.9994  27.6461 0009401 290.6475  69.3158 15.19430686550159
CHUBUSAT-3              
1 41339U 16012C   26048.33712588  .00006407  00000+0  30730-3 0  9999
2 41339  31.0060  33.9691 0009719 282.6909  77.2644 15.17362425549975
HORYU-4                 
1 41340U 16012D   26048.51777360  .00081204  00000+0  98028-3 0  9992
2 41340  30.9908 208.7023 0000817 228.6743 131.3838 15.59371938551956
ZIYUAN 3-02 (ZY 3-02)   
1 41556U 16033A   26048.54833494  .00007760  00000+0  34973-3 0  9992
2 41556  97.3942 126.5661 0012651  14.2708 345.8882 15.21246761539797
CARTOSAT-2C             
1 41599U 16040A   26048.51693203  .00005851  00000+0  28027-3 0  9998
2 41599  97.4656 110.0413 0009715 189.3005 170.8051 15.19278132535548
